HELIOS 1B               
1 25977U 99064A   20168.14110965  .00000037  00000-0  11706-4 0  9991
2 25977  98.2810 322.9787 0001595  41.8612 318.2722 14.82481367374924
TERRA                   
1 25994U 99068A   20168.48373930  .00000052  00000-0  21571-4 0  9992
2 25994  98.2127 242.7828 0001565  98.1931 261.9446 14.57111007 90177
SL-16 R/B               
1 26070U 00006B   20168.17765248 -.00000117  00000-0 -35715-4 0  9994
2 26070  71.0012 175.9344 0014675 131.6167 228.6216 14.15467184 52453
TITAN 4B R/B            
1 26474U 00047B   20168.18201190  .00000008  00000-0  11698-4 0  9990
2 26474  67.9949  79.1916 0057825 203.5459 156.3035 14.95958795 79053
ENVISAT                 
1 27386U 02009A   20168.46945987 -.00000001  00000-0  13018-4 0  9995
2 27386  98.1356 175.5711 0001268  91.3711  72.5153 14.37983623958478
IDEFIX & ARIANE 42P R/B 
1 27422U 02021B   20168.12542254 -.00000010  00000-0  12283-4 0  9996
2 27422  98.3508 129.2480 0011143 231.9041 128.1137 14.29289494944976
AQUA                    
1 27424U 02022A   20168.22274257  .00000043  00000-0  19694-4 0  9993
2 27424  98.2093 108.8707 0002005  37.6101 291.7735 14.57113492963681
CZ-4B R/B               
1 27432U 02024C   20167.99246525 -.00000011  00000-0  18085-4 0  9993
2 27432  99.0870 170.1618 0050431 179.3561 234.3477 14.14093974933447
MIDORI II (ADEOS-II)    
1 27597U 02056A   20168.13500639  .00000006  00000-0  19986-4 0  9990
2 27597  98.5198 115.7538 0001581  45.2125 314.9185 14.27449256911620
H-2A R/B                
1 27601U 02056E   20168.12920708  .00000042  00000-0  30348-4 0  9993
2 27601  98.2256 203.9698 0070873 281.8568 142.0960 14.31953829914506
CZ-4B R/B               
1 28059U 03049C   20168.35888676 -.00000020  00000-0  68095-5 0  9994
2 28059  98.4865  84.8786 0050834 140.8485 219.6406 14.52602008882652
CZ-2C R/B               
1 28222U 04012C   20168.18163017  .00000497  00000-0  33558-4 0  9995
2 28222  97.6768 130.7183 0048117  36.1236 334.6695 15.10398300885801
SL-16 R/B               
1 28353U 04021B   20168.07530369 -.00000239  00000-0 -10030-3 0  9991
2 28353  70.9993 302.2158 0006228 316.9896  43.0739 14.14226879826940
CZ-4B R/B               
1 28415U 04035C   20168.17408793  .00000005  00000-0  46855-5 0  9996
2 28415  97.6135 209.7659 0051457 358.6963   1.4122 15.06867468863449
CZ-2C R/B               
1 28480U 04046B   20168.21891493  .00000013  00000-0  20573-4 0  9995
2 28480  98.0780 203.2628 0140950 228.4267 172.9958 14.25724179810247
ARIANE 5 R/B            
1 28499U 04049H   20168.22295209  .00000020  00000-0  10019-4 0  9994
2 28499  98.0549 269.9920 0090777 277.3681 136.3649 14.80030132835910
CZ-2D R/B               
1 28738U 05024B   20168.32213757  .00000187  00000-0  14511-4 0  9998
2 28738  97.3822 190.9346 0011846 179.9036 180.2200 15.12041488821253
SUZAKU (ASTRO-EII)      
1 28773U 05025A   20168.03520057  .00000716  00000-0  30457-4 0  9995
2 28773  31.3833  25.8887 0004588 196.2669 163.7832 15.17572186823727
ALOS (DAICHI)           
1 28931U 06002A   20168.45801538  .00000081  00000-0  24597-4 0  9992
2 28931  97.8451 154.2384 0002372  86.8810 273.2663 14.62715629767553
H-2A R/B                
1 28932U 06002B   20168.51955067  .00000197  00000-0  24555-4 0  9999
2 28932  98.3212 158.4967 0087915 325.4030 144.2973 14.92229876781116
AKARI (ASTRO-F)         
1 28939U 06005A   20168.47010511  .00002276  00000-0  62646-4 0  9993
2 28939  98.2312 142.4597 0092431 328.4648  31.1071 15.34312720780763
RESURS-DK 1             
1 29228U 06021A   20168.21663484  .00000024  00000-0  90984-5 0  9994
2 29228  69.9342 191.1498 0001744 127.3701 232.7618 15.02544683772562
GENESIS 1               
1 29252U 06029A   20168.09271181  .00000330  00000-0  26036-4 0  9990
2 29252  64.5220 306.0323 0011449 179.3835 180.7305 15.18137094767893
CZ-4B R/B               
1 29507U 06046C   20168.15770770  .00000281  00000-0  26633-4 0  9995
2 29507  97.7605 190.0492 0048935 167.9700 192.2704 15.00659894745179
CZ-2C R/B               
1 31114U 07010B   20168.17685874  .00000026  00000-0  31236-4 0  9998
2 31114  98.2616  21.1403 0058509 271.0252  88.4223 14.19323056682828
COSMO-SKYMED 1          
1 31598U 07023A   20168.39769868 -.00000125  00000-0 -91745-5 0  9992
2 31598  97.8860 351.5850 0001415  89.8876 270.2520 14.82157138704672
GENESIS 2               
1 31789U 07028A   20168.04570846  .00000241  00000-0  22259-4 0  9997
2 31789  64.5057 347.7708 0046654 241.5739 118.0678 15.17279724714962
COSMOS 2428             
1 31792U 07029A   20168.43291284 -.00000328  00000-0 -15200-3 0  9996
2 31792  70.9140 275.1193 0007737  55.2767 304.9081 14.12335358668728
SL-16 R/B               
1 31793U 07029B   20168.21548506  .00000086  00000-0  70106-4 0  9991
2 31793  70.9753 248.9604 0002479 268.4151 158.2470 14.14426091669514
KORONAS-FOTON           
1 33504U 09003A   20168.44478093  .00000435  00000-0  21169-4 0  9998
2 33504  82.4424 223.8246 0017451 283.7752  76.1538 15.15647334627330
H-2A R/B                
1 38341U 12025E   20168.50441084  .00000120  00000-0  21757-4 0  9991
2 38341  98.5001 323.4593 0054522 234.2074 125.4064 14.84036586437307
CUSAT 2 & FALCON 9 R/B  
1 39271U 13055G   20168.22444411  .00006917  00000-0  16563-3 0  9992
2 39271  80.9669 268.3223 0589224 173.8544 187.0322 14.47977731350551
SL-4 R/B                
1 39679U 14021B   20168.18542922 -.00000014  00000-0  17556-4 0  9996
2 39679  51.6168 113.3073 0171545 301.5190  56.9120 15.06425095338838
ALOS-2                  
1 39766U 14029A   20168.49663630  .00000054  00000-0  14133-4 0  9996
2 39766  97.9226 265.1075 0001594  95.0299 265.1101 14.79471195327553
CZ-2C R/B               
1 40306U 14071B   20168.46976882  .00001942  00000-0  42893-4 0  9999
2 40306  97.3248 114.9789 0015994 162.5981 197.5819 15.45019411313724
SL-27 R/B               
1 40354U 14084B   20168.22631548  .00000512  00000-0  13765-4 0  9995
2 40354  74.7384  30.6360 0038585 221.5795 138.2482 15.40221980307942
YAOGAN 29               
1 41038U 15069A   20168.49252271 -.00000001  00000-0  67760-5 0  9999
2 41038  98.0101 156.4669 0000484  81.7234 278.4033 14.80450035246138
ASTRO-H (HITOMI)        
1 41337U 16012A   20167.99966695  .00000203  00000-0  95229-5 0  9990
2 41337  31.0068  18.9778 0012239  56.5340 303.6463 14.98687028237288
SHENZHOU-11 MODULE      
1 41868U 16061G   20168.10429760  .00036075  89040-5  80352-4 0  9996
2 41868  42.7869 147.0814 0012487 147.1505 304.3783 15.98029254205858
HXMT (HUIYAN)           
1 42758U 17034A   20168.14598628  .00000015  00000-0  14676-4 0  9995
2 42758  43.0198  43.1683 0010785  11.7576 125.1334 15.08835713165671
CZ-2C R/B               
1 43521U 18054D   20168.22240251  .00000162  00000-0  11202-4 0  9997
2 43521  35.1520 187.5461 0082176 106.9434 254.0307 15.11008385108963
AEOLUS                  
1 43600U 18066A   20168.47553489  .00018977  00000-0  74421-4 0  9990
2 43600  96.7180 174.8891 0004671  98.2902 261.8901 15.86980994105217
SAOCOM 1A               
1 43641U 18076A   20168.40587982 -.00000011  00000-0  51709-5 0  9990
2 43641  97.8898 354.5361 0001472  83.7796 276.3588 14.82158550 91446
CREW DRAGON DEMO-1 DEB  
1 44064U 19011B   20168.12654907  .00009436  00000-0  99684-4 0  9993
2 44064  51.6349 319.1776 0003225  55.0202 305.1095 15.64974438 72708
